{"type": "FeatureCollection", "extracted": 229, "mapped": 40, "claims": 18, "features": [{"type": "Feature", "id": "ev_824bd8c89d30a04b", "geometry": {"type": "Point", "coordinates": [-86.771388888, 36.166388888]}, "properties": {"event_id": "ev_824bd8c89d30a04b", "mentions": 1, "event_ids": ["ev_824bd8c89d30a04b"], "sources": ["|The Tennessean; Nashville, Tenn. | 2016-10-02"], "venue_id": "wd-Q1142992", "venue_name": "Nissan Stadium", "venue_name_as_written": "Nissan Stadium", "operator": "Aramark", "operator_normalized": "Aramark", "sub_brand": null, "event_type": "initiative", "event_date": "2016-10-02", "event_year": 2016, "date_precision": "approx", "contract_value_usd": null, "extraction_confidence": 0.65, "needs_review": true, "source_publication": "|The Tennessean; Nashville, Tenn. |", "source_date": "2016-10-02", "source_title": "Josephine chef pops up at Titans' game", "source_file": "articles/raw/usb1/Aramark/ProQuestDocuments-2026-07-29 (1).rtf"}}, {"type": "Feature", "id": "ev_3eccefa12c893476", "geometry": {"type": "Point", "coordinates": [-75.171111111, 39.906666666]}, "properties": {"event_id": "ev_3eccefa12c893476", "mentions": 1, "event_ids": ["ev_3eccefa12c893476"], "sources": ["|TCA Regional News; Chicago | 2016-07-30"], "venue_id": "wd-Q1545870", "venue_name": "Veterans Stadium", "venue_name_as_written": "Veterans Stadium", "operator": "Harry M. Stevens", "operator_normalized": "Harry M. Stevens", "sub_brand": null, "event_type": "won", "event_date": "1997-01-01", "event_year": 1997, "date_precision": "approx", "contract_value_usd": null, "extraction_confidence": 0.45, "needs_review": true, "source_publication": "|TCA Regional News; Chicago |", "source_date": "2016-07-30", "source_title": "In Philly, from cleaning lady to CEO, a rags-to-riches story", "source_file": "articles/raw/usb1/Aramark/ProQuestDocuments-2026-07-29 (1).rtf"}}, {"type": "Feature", "id": "ev_71d0143d9b28035d", "geometry": {"type": "Point", "coordinates": [-93.235277777, 44.975]}, "properties": {"event_id": "ev_71d0143d9b28035d", "mentions": 1, "event_ids": ["ev_71d0143d9b28035d"], "sources": ["|University Wire; Carlsbad | 2017-01-19"], "venue_id": "wd-Q238101", "venue_name": "University of Minnesota", "venue_name_as_written": "University of Minnesota", "operator": "Aramark", "operator_normalized": "Aramark", "sub_brand": null, "event_type": "won", "event_date": "1998-01-01", "event_year": 1998, "date_precision": "year", "contract_value_usd": null, "extraction_confidence": 0.85, "needs_review": false, "source_publication": "|University Wire; Carlsbad |", "source_date": "2017-01-19", "source_title": "After complaints over U food service, Student Senate taking steps to address issues", "source_file": "articles/raw/usb1/Aramark/ProQuestDocuments-2026-07-29 (1).rtf"}}, {"type": "Feature", "id": "ev_f3c41c9f6493897d", "geometry": {"type": "Point", "coordinates": [-88.235833333, 40.099166666]}, "properties": {"event_id": "ev_f3c41c9f6493897d", "mentions": 1, "event_ids": ["ev_f3c41c9f6493897d"], "sources": ["|News Gazette; Champaign, Ill. | 2016-08-07"], "venue_id": "wd-Q3305514", "venue_name": "Gies Memorial Stadium", "venue_name_as_written": "Memorial Stadium", "operator": "Sodexo", "operator_normalized": "Sodexo", "sub_brand": null, "event_type": "won", "event_date": "2015-01-01", "event_year": 2015, "date_precision": "year", "contract_value_usd": null, "extraction_confidence": 0.85, "needs_review": false, "source_publication": "|News Gazette; Champaign, Ill. |", "source_date": "2016-08-07", "source_title": "Stadium tweaking its munchies menu", "source_file": "articles/raw/usb1/Sodexho/ProQuestDocuments-2026-07-29.rtf"}}, {"type": "Feature", "id": "ev_151d52e651c23ef4", "geometry": {"type": "Point", "coordinates": [-75.188686, 39.956441]}, "properties": {"event_id": "ev_151d52e651c23ef4", "mentions": 1, "event_ids": ["ev_151d52e651c23ef4"], "sources": ["|Fair Disclosure Wire; Linthicum | 2016-11-15"], "venue_id": "wd-Q603034", "venue_name": "Drexel University", "venue_name_as_written": "Drexel University", "operator": "Aramark", "operator_normalized": "Aramark", "sub_brand": null, "event_type": "won", "event_date": "2016-01-01", "event_year": 2016, "date_precision": "approx", "contract_value_usd": null, "extraction_confidence": 0.8, "needs_review": true, "source_publication": "|Fair Disclosure Wire; Linthicum |", "source_date": "2016-11-15", "source_title": "Event Brief of Q4 2016 Aramark Earnings Call - Final", "source_file": "articles/raw/usb1/Aramark/ProQuestDocuments-2026-07-29 (1).rtf"}}, {"type": "Feature", "id": "ev_5655db073e1031e4", "geometry": {"type": "Point", "coordinates": [-75.188686, 39.956441]}, "properties": {"event_id": "ev_5655db073e1031e4", "mentions": 9, "event_ids": ["ev_5655db073e1031e4", "ev_64efa60cf7877d3b", "ev_92a4f6990b5e30cd", "ev_9f9a1c4748b3765e", "ev_1576b0f6277181e2", "ev_cbf723b1238b2101", "ev_110022717d7259bb", "ev_4457e59042ed8132", "ev_385a03569145ac3a"], "sources": ["|Philadelphia Daily News; Philadelphia, Pa. | 2016-11-03", "|Philadelphia Daily News (1960-); Philadelphia, Pennsylvania | 2016-11-03", "|Philadelphia Inquirer (1969-); Philadelphia | 2016-11-16", "|Philadelphia Inquirer; Philadelphia, Pa. | 2016-11-01", "|TCA Regional News; Chicago | 2016-10-31", "|University Wire; Carlsbad | 2016-10-28", "|Philadelphia Inquirer (1969-); Philadelphia | 2016-11-01"], "venue_id": "wd-Q603034", "venue_name": "Drexel University", "venue_name_as_written": "Drexel University", "operator": "Aramark", "operator_normalized": "Aramark", "sub_brand": null, "event_type": "won", "event_date": "2016-12-11", "event_year": 2016, "date_precision": "exact", "contract_value_usd": null, "extraction_confidence": 0.9, "needs_review": true, "source_publication": "|Philadelphia Daily News; Philadelphia, Pa. |", "source_date": "2016-11-03", "source_title": "Local rankings", "source_file": "articles/raw/usb1/Aramark/ProQuestDocuments-2026-07-29 (1).rtf"}}, {"type": "Feature", "id": "ev_4605d693ee6f70b1", "geometry": {"type": "Point", "coordinates": [-75.188686, 39.956441]}, "properties": {"event_id": "ev_4605d693ee6f70b1", "mentions": 1, "event_ids": ["ev_4605d693ee6f70b1"], "sources": ["|Fair Disclosure Wire; Linthicum | 2016-11-15"], "venue_id": "wd-Q603034", "venue_name": "Drexel University", "venue_name_as_written": "Drexel University", "operator": "Aramark", "operator_normalized": "Aramark", "sub_brand": null, "event_type": "won", "event_date": null, "event_year": null, "date_precision": "approx", "contract_value_usd": null, "extraction_confidence": 0.82, "needs_review": true, "source_publication": "|Fair Disclosure Wire; Linthicum |", "source_date": "2016-11-15", "source_title": "Q4 2016 Aramark Earnings Call - Final", "source_file": "articles/raw/usb1/Aramark/ProQuestDocuments-2026-07-29 (1).rtf"}}, {"type": "Feature", "id": "ev_54bf40d031fa7244", "geometry": {"type": "Point", "coordinates": [-75.188686, 39.956441]}, "properties": {"event_id": "ev_54bf40d031fa7244", "mentions": 3, "event_ids": ["ev_54bf40d031fa7244", "ev_33650d0abe13f0c7", "ev_f5bcd4d07bfd25e2"], "sources": ["|Food Management; Cleveland | 2016-10-20", "|The Daily Record; Baltimore, Md. | 2016-10-10", "|Philadelphia Inquirer (1969-); Philadelphia | 2016-10-11"], "venue_id": "wd-Q603034", "venue_name": "Drexel University", "venue_name_as_written": "Drexel University", "operator": "SodexoMAGIC", "operator_normalized": "Sodexo", "sub_brand": "SodexoMAGIC", "event_type": "won", "event_date": "2015-05-21", "event_year": 2015, "date_precision": "exact", "contract_value_usd": null, "extraction_confidence": 0.9, "needs_review": false, "source_publication": "|Food Management; Cleveland |", "source_date": "2016-10-20", "source_title": "SodexoMAGIC files fraud complaint against Drexel", "source_file": "articles/raw/usb1/Sodexho/ProQuestDocuments-2026-07-29.rtf"}}, {"type": "Feature", "id": "ev_27cf5d4cc3acfdd0", "geometry": {"type": "Point", "coordinates": [-75.188686, 39.956441]}, "properties": {"event_id": "ev_27cf5d4cc3acfdd0", "mentions": 2, "event_ids": ["ev_27cf5d4cc3acfdd0", "ev_5ff1a8e1a957888c"], "sources": ["|The Daily Record; Baltimore, Md. | 2016-10-10", "|University Wire; Carlsbad | 2016-10-28"], "venue_id": "wd-Q603034", "venue_name": "Drexel University", "venue_name_as_written": "Drexel University", "operator": "SodexoMagic", "operator_normalized": "Sodexo", "sub_brand": "SodexoMagic", "event_type": "lost", "event_date": "2016-09-20", "event_year": 2016, "date_precision": "exact", "contract_value_usd": null, "extraction_confidence": 0.85, "needs_review": true, "source_publication": "|The Daily Record; Baltimore, Md. |", "source_date": "2016-10-10", "source_title": "Md. company alleges fraud by Drexel University", "source_file": "articles/raw/usb1/Sodexho/ProQuestDocuments-2026-07-29.rtf"}}, {"type": "Feature", "id": "ev_a37bafd56fdad641", "geometry": {"type": "Point", "coordinates": [-75.188686, 39.956441]}, "properties": {"event_id": "ev_a37bafd56fdad641", "mentions": 1, "event_ids": ["ev_a37bafd56fdad641"], "sources": ["|Food Management; Cleveland | 2016-10-20"], "venue_id": "wd-Q603034", "venue_name": "Drexel University", "venue_name_as_written": "Drexel", "operator": "SodexoMAGIC", "operator_normalized": "Sodexo", "sub_brand": "SodexoMAGIC", "event_type": "violation", "event_date": "2016-10-01", "event_year": 2016, "date_precision": "month", "contract_value_usd": null, "extraction_confidence": 0.75, "needs_review": true, "source_publication": "|Food Management; Cleveland |", "source_date": "2016-10-20", "source_title": "SodexoMAGIC files fraud complaint against Drexel", "source_file": "articles/raw/usb1/Sodexho/ProQuestDocuments-2026-07-29.rtf"}}, {"type": "Feature", "id": "ev_66dd1c7bd79cd51c", "geometry": {"type": "Point", "coordinates": [-75.188686, 39.956441]}, "properties": {"event_id": "ev_66dd1c7bd79cd51c", "mentions": 4, "event_ids": ["ev_66dd1c7bd79cd51c", "ev_b65daccf305ed6ec", "ev_9b69752e4110e409", "ev_cc8ebaa2e87c3f73"], "sources": ["|University Wire; Carlsbad | 2016-10-21", "|University Wire; Carlsbad | 2016-10-06", "|Food Management; Cleveland | 2016-10-20", "|Philadelphia Inquirer (1969-); Philadelphia | 2016-10-11"], "venue_id": "wd-Q603034", "venue_name": "Drexel University", "venue_name_as_written": "Drexel University", "operator": "SodexoMagic", "operator_normalized": "Sodexo", "sub_brand": "SodexoMagic", "event_type": "expired", "event_date": "2016-12-10", "event_year": 2016, "date_precision": "exact", "contract_value_usd": null, "extraction_confidence": 0.85, "needs_review": true, "source_publication": "|University Wire; Carlsbad |", "source_date": "2016-10-21", "source_title": "What a Dragon can learn from an Owl", "source_file": "articles/raw/usb1/Aramark/ProQuestDocuments-2026-07-29 (1).rtf"}}, {"type": "Feature", "id": "ev_eb06480d77146771", "geometry": {"type": "Point", "coordinates": [-75.188686, 39.956441]}, "properties": {"event_id": "ev_eb06480d77146771", "mentions": 6, "event_ids": ["ev_eb06480d77146771", "ev_a7cc8b521b277db2", "ev_6beccbcecdd23ea5", "ev_f6b5a2138034d929", "ev_9d6297b9090ee992", "ev_f72357eb884f8243"], "sources": ["|University Wire; Carlsbad | 2016-10-25", "|Philadelphia Inquirer; Philadelphia, Pa. | 2016-11-01", "|TCA Regional News; Chicago | 2016-10-31", "|Philadelphia Inquirer (1969-); Philadelphia | 2016-11-01"], "venue_id": "wd-Q603034", "venue_name": "Drexel University", "venue_name_as_written": "Drexel", "operator": "Sodexo", "operator_normalized": "Sodexo", "sub_brand": null, "event_type": "lost", "event_date": "2016-12-10", "event_year": 2016, "date_precision": "exact", "contract_value_usd": null, "extraction_confidence": 0.88, "needs_review": false, "source_publication": "|University Wire; Carlsbad |", "source_date": "2016-10-25", "source_title": "Aramark contract to add retailers, affect old ones", "source_file": "articles/raw/usb1/Aramark/ProQuestDocuments-2026-07-29 (1).rtf"}}, {"type": "Feature", "id": "ev_e1e02178446ca129", "geometry": {"type": "Point", "coordinates": [-97.126666666, 32.729166666]}, "properties": {"event_id": "ev_e1e02178446ca129", "mentions": 1, "event_ids": ["ev_e1e02178446ca129"], "sources": ["|University Wire; Carlsbad | 2016-08-22"], "venue_id": "wd-Q6794182", "venue_name": "Maverick Stadium,Texas", "venue_name_as_written": "University of Texas - Arlington", "operator": "Aramark", "operator_normalized": "Aramark", "sub_brand": null, "event_type": "lost", "event_date": "2016-06-06", "event_year": 2016, "date_precision": "approx", "contract_value_usd": null, "extraction_confidence": 0.9, "needs_review": false, "source_publication": "|University Wire; Carlsbad |", "source_date": "2016-08-22", "source_title": "New food distributor refreshes UTA's cuisine", "source_file": "articles/raw/usb1/Aramark/ProQuestDocuments-2026-07-29 (1).rtf"}}, {"type": "Feature", "id": "ev_3f56dfa6a6530881", "geometry": {"type": "Point", "coordinates": [-97.126666666, 32.729166666]}, "properties": {"event_id": "ev_3f56dfa6a6530881", "mentions": 1, "event_ids": ["ev_3f56dfa6a6530881"], "sources": ["|University Wire; Carlsbad | 2016-08-22"], "venue_id": "wd-Q6794182", "venue_name": "Maverick Stadium,Texas", "venue_name_as_written": "University of Texas - Arlington", "operator": "Chartwells", "operator_normalized": "Compass", "sub_brand": "Chartwells", "event_type": "won", "event_date": "2016-06-06", "event_year": 2016, "date_precision": "approx", "contract_value_usd": null, "extraction_confidence": 0.9, "needs_review": false, "source_publication": "|University Wire; Carlsbad |", "source_date": "2016-08-22", "source_title": "New food distributor refreshes UTA's cuisine", "source_file": "articles/raw/usb1/Aramark/ProQuestDocuments-2026-07-29 (1).rtf"}}, {"type": "Feature", "id": "ev_556e2b87ec155c0b", "geometry": {"type": "Point", "coordinates": [-93.258056, 44.973889]}, "properties": {"event_id": "ev_556e2b87ec155c0b", "mentions": 4, "event_ids": ["ev_556e2b87ec155c0b", "ev_afcf646fb820ea39", "ev_0e17dc4174d54b02", "ev_30169bf1e95fb9e4"], "sources": ["|Fair Disclosure Wire; Linthicum | 2016-11-15", "|Star Tribune; Minneapolis, Minn. | 2016-11-03", "|Star Tribune (1987-); Minneapolis | 2016-11-03"], "venue_id": "wd-Q7929512", "venue_name": "U.S. Bank Stadium", "venue_name_as_written": "US Bank Stadium", "operator": "Aramark", "operator_normalized": "Aramark", "sub_brand": null, "event_type": "won", "event_date": "2016-01-01", "event_year": 2016, "date_precision": "year", "contract_value_usd": null, "extraction_confidence": 0.85, "needs_review": false, "source_publication": "|Fair Disclosure Wire; Linthicum |", "source_date": "2016-11-15", "source_title": "Q4 2016 Aramark Earnings Call - Final", "source_file": "articles/raw/usb1/Aramark/ProQuestDocuments-2026-07-29 (1).rtf"}}, {"type": "Feature", "id": "ev_1d9b218f0ccdcaa8", "geometry": {"type": "Point", "coordinates": [-93.258056, 44.973889]}, "properties": {"event_id": "ev_1d9b218f0ccdcaa8", "mentions": 1, "event_ids": ["ev_1d9b218f0ccdcaa8"], "sources": ["|Star Tribune; Minneapolis, Minn. | 2016-11-02"], "venue_id": "wd-Q7929512", "venue_name": "U.S. Bank Stadium", "venue_name_as_written": "U.S. Bank Stadium", "operator": "Aramark", "operator_normalized": "Aramark", "sub_brand": null, "event_type": "violation", "event_date": null, "event_year": null, "date_precision": "approx", "contract_value_usd": null, "extraction_confidence": 0.85, "needs_review": true, "source_publication": "|Star Tribune; Minneapolis, Minn. |", "source_date": "2016-11-02", "source_title": "Aramark got behind on paying stadium vendors: A clerical error was the cause of the delays, an Aramark spokesman said.", "source_file": "articles/raw/usb1/Aramark/ProQuestDocuments-2026-07-29 (1).rtf"}}, {"type": "Feature", "id": "ev_a4f21430519ab961", "geometry": {"type": "Point", "coordinates": [-93.258056, 44.973889]}, "properties": {"event_id": "ev_a4f21430519ab961", "mentions": 1, "event_ids": ["ev_a4f21430519ab961"], "sources": ["|TCA Regional News; Chicago | 2016-11-02"], "venue_id": "wd-Q7929512", "venue_name": "U.S. Bank Stadium", "venue_name_as_written": "U.S. Bank Stadium", "operator": "Aramark", "operator_normalized": "Aramark", "sub_brand": null, "event_type": "violation", "event_date": null, "event_year": null, "date_precision": "approx", "contract_value_usd": null, "extraction_confidence": 0.82, "needs_review": true, "source_publication": "|TCA Regional News; Chicago |", "source_date": "2016-11-02", "source_title": "Aramark says local partners at U.S. Bank Stadium being paid -- three months later", "source_file": "articles/raw/usb1/Aramark/ProQuestDocuments-2026-07-29 (1).rtf"}}, {"type": "Feature", "id": "ev_0d78ee36e0ac1ed1", "geometry": {"type": "Point", "coordinates": [-93.258056, 44.973889]}, "properties": {"event_id": "ev_0d78ee36e0ac1ed1", "mentions": 1, "event_ids": ["ev_0d78ee36e0ac1ed1"], "sources": ["|TCA Regional News; Chicago | 2016-11-03"], "venue_id": "wd-Q7929512", "venue_name": "U.S. Bank Stadium", "venue_name_as_written": "U.S. Bank Stadium", "operator": "Aramark", "operator_normalized": "Aramark", "sub_brand": null, "event_type": "won", "event_date": null, "event_year": null, "date_precision": "approx", "contract_value_usd": null, "extraction_confidence": 0.9, "needs_review": true, "source_publication": "|TCA Regional News; Chicago |", "source_date": "2016-11-03", "source_title": "Best and worst foods at U.S. Bank Stadium, ranked by our food critic", "source_file": "articles/raw/usb1/Aramark/ProQuestDocuments-2026-07-29 (1).rtf"}}]}