{"type": "FeatureCollection", "features": [{"type": "Feature", "id": "sp-095465ccbb", "geometry": {"type": "Point", "coordinates": [-86.771388888, 36.166388888]}, "properties": {"tenure_id": "sp-095465ccbb", "venue_id": "wd-Q1142992", "venue_name": "Nissan Stadium", "venue_type": "stadium", "city": "Nashville-Davidson metropolitan government (balance)", "state": "TN", "operator": "Aramark", "operator_normalized": "Aramark", "start_date": null, "end_date": null, "end_status": "unknown", "exit_mode": null, "start_year": null, "render_end_year": 2016, "render_end_basis": "evidence stops here; the end is unknown", "start_is_known": false, "end_inferred": false, "needs_review": true, "event_count": 1, "source": "|The Tennessean; Nashville, Tenn. | 2016-10-02"}}, {"type": "Feature", "id": "sp-c601bbb5ff", "geometry": {"type": "Point", "coordinates": [-75.171111111, 39.906666666]}, "properties": {"tenure_id": "sp-c601bbb5ff", "venue_id": "wd-Q1545870", "venue_name": "Veterans Stadium", "venue_type": "stadium", "city": "Philadelphia", "state": "PA", "operator": "Harry M. Stevens", "operator_normalized": "Harry M. Stevens", "start_date": "1997-01-01", "end_date": null, "end_status": "unknown", "exit_mode": null, "start_year": 1997, "render_end_year": 1997, "render_end_basis": "evidence stops here; the end is unknown", "start_is_known": true, "end_inferred": false, "needs_review": false, "event_count": 1, "source": "|TCA Regional News; Chicago | 2016-07-30"}}, {"type": "Feature", "id": "sp-631b2748ad", "geometry": {"type": "Point", "coordinates": [-93.235277777, 44.975]}, "properties": {"tenure_id": "sp-631b2748ad", "venue_id": "wd-Q238101", "venue_name": "University of Minnesota", "venue_type": "other", "city": "Minneapolis", "state": "MN", "operator": "Aramark", "operator_normalized": "Aramark", "start_date": "1998-01-01", "end_date": null, "end_status": "unknown", "exit_mode": null, "start_year": 1998, "render_end_year": 1998, "render_end_basis": "evidence stops here; the end is unknown", "start_is_known": true, "end_inferred": false, "needs_review": false, "event_count": 1, "source": "|University Wire; Carlsbad | 2017-01-19"}}, {"type": "Feature", "id": "sp-7f38b67e46", "geometry": {"type": "Point", "coordinates": [-88.235833333, 40.099166666]}, "properties": {"tenure_id": "sp-7f38b67e46", "venue_id": "wd-Q3305514", "venue_name": "Gies Memorial Stadium", "venue_type": "stadium", "city": "Champaign", "state": "IL", "operator": "Sodexo", "operator_normalized": "Sodexo", "start_date": "2015-01-01", "end_date": null, "end_status": "unknown", "exit_mode": null, "start_year": 2015, "render_end_year": 2015, "render_end_basis": "evidence stops here; the end is unknown", "start_is_known": true, "end_inferred": false, "needs_review": false, "event_count": 1, "source": "|News Gazette; Champaign, Ill. | 2016-08-07"}}, {"type": "Feature", "id": "sp-ea85b29ed0", "geometry": {"type": "Point", "coordinates": [-75.188686, 39.956441]}, "properties": {"tenure_id": "sp-ea85b29ed0", "venue_id": "wd-Q603034", "venue_name": "Drexel University", "venue_type": "other", "city": "Philadelphia", "state": "PA", "operator": "Aramark", "operator_normalized": "Aramark", "start_date": "2016-01-01", "end_date": null, "end_status": "unknown", "exit_mode": null, "start_year": 2016, "render_end_year": 2016, "render_end_basis": "evidence stops here; the end is unknown", "start_is_known": true, "end_inferred": false, "needs_review": true, "event_count": 3, "source": "|Fair Disclosure Wire; Linthicum | 2016-11-15; |Philadelphia Daily News; Philadelphia, Pa. | 2016-11-03; |Philadelphia Daily News (1960-); Philadelphia, Pennsylvania | 2016-11-03; |Philadelphia Inquirer (1969-); Philadelphia | 2016-11-16; |Philadelphia Inquirer; Philadelphia, Pa. | 2016-11-01; |TCA Regional News; Chicago | 2016-10-31; |University Wire; Carlsbad | 2016-10-28; |Philadelphia Inquirer (1969-); Philadelphia | 2016-11-01"}}, {"type": "Feature", "id": "sp-9b292eb880", "geometry": {"type": "Point", "coordinates": [-75.188686, 39.956441]}, "properties": {"tenure_id": "sp-9b292eb880", "venue_id": "wd-Q603034", "venue_name": "Drexel University", "venue_type": "other", "city": "Philadelphia", "state": "PA", "operator": "Sodexo", "operator_normalized": "Sodexo", "start_date": "2015-05-21", "end_date": "2016-09-20", "end_status": "ended", "exit_mode": "lost_bid", "start_year": 2015, "render_end_year": 2016, "render_end_basis": "reported end", "start_is_known": true, "end_inferred": false, "needs_review": true, "event_count": 2, "source": "|Food Management; Cleveland | 2016-10-20; |The Daily Record; Baltimore, Md. | 2016-10-10; |Philadelphia Inquirer (1969-); Philadelphia | 2016-10-11; |University Wire; Carlsbad | 2016-10-28"}}, {"type": "Feature", "id": "sp-6dbbf8e581", "geometry": {"type": "Point", "coordinates": [-75.188686, 39.956441]}, "properties": {"tenure_id": "sp-6dbbf8e581", "venue_id": "wd-Q603034", "venue_name": "Drexel University", "venue_type": "other", "city": "Philadelphia", "state": "PA", "operator": "Sodexo", "operator_normalized": "Sodexo", "start_date": null, "end_date": "2016-12-10", "end_status": "ended", "exit_mode": "other", "start_year": null, "render_end_year": 2016, "render_end_basis": "reported end", "start_is_known": false, "end_inferred": false, "needs_review": true, "event_count": 2, "source": "|Food Management; Cleveland | 2016-10-20; |University Wire; Carlsbad | 2016-10-21; |University Wire; Carlsbad | 2016-10-06; |Philadelphia Inquirer (1969-); Philadelphia | 2016-10-11"}}, {"type": "Feature", "id": "sp-bfa4169a44", "geometry": {"type": "Point", "coordinates": [-75.188686, 39.956441]}, "properties": {"tenure_id": "sp-bfa4169a44", "venue_id": "wd-Q603034", "venue_name": "Drexel University", "venue_type": "other", "city": "Philadelphia", "state": "PA", "operator": "Sodexo", "operator_normalized": "Sodexo", "start_date": null, "end_date": "2016-12-10", "end_status": "ended", "exit_mode": "lost_bid", "start_year": null, "render_end_year": 2016, "render_end_basis": "reported end", "start_is_known": false, "end_inferred": false, "needs_review": true, "event_count": 1, "source": "|University Wire; Carlsbad | 2016-10-25; |Philadelphia Inquirer; Philadelphia, Pa. | 2016-11-01; |TCA Regional News; Chicago | 2016-10-31; |Philadelphia Inquirer (1969-); Philadelphia | 2016-11-01"}}, {"type": "Feature", "id": "sp-7ae49c0f41", "geometry": {"type": "Point", "coordinates": [-97.126666666, 32.729166666]}, "properties": {"tenure_id": "sp-7ae49c0f41", "venue_id": "wd-Q6794182", "venue_name": "Maverick Stadium,Texas", "venue_type": "stadium", "city": "Arlington", "state": "TX", "operator": "Aramark", "operator_normalized": "Aramark", "start_date": null, "end_date": "2016-06-06", "end_status": "ended", "exit_mode": "lost_bid", "start_year": null, "render_end_year": 2016, "render_end_basis": "reported end", "start_is_known": false, "end_inferred": false, "needs_review": true, "event_count": 1, "source": "|University Wire; Carlsbad | 2016-08-22"}}, {"type": "Feature", "id": "sp-61079a2a54", "geometry": {"type": "Point", "coordinates": [-97.126666666, 32.729166666]}, "properties": {"tenure_id": "sp-61079a2a54", "venue_id": "wd-Q6794182", "venue_name": "Maverick Stadium,Texas", "venue_type": "stadium", "city": "Arlington", "state": "TX", "operator": "Compass", "operator_normalized": "Compass", "start_date": "2016-06-06", "end_date": null, "end_status": "unknown", "exit_mode": null, "start_year": 2016, "render_end_year": 2016, "render_end_basis": "evidence stops here; the end is unknown", "start_is_known": true, "end_inferred": false, "needs_review": false, "event_count": 1, "source": "|University Wire; Carlsbad | 2016-08-22"}}, {"type": "Feature", "id": "sp-ee1e3bbdb9", "geometry": {"type": "Point", "coordinates": [-93.258056, 44.973889]}, "properties": {"tenure_id": "sp-ee1e3bbdb9", "venue_id": "wd-Q7929512", "venue_name": "U.S. Bank Stadium", "venue_type": "stadium", "city": "Minneapolis", "state": "MN", "operator": "Aramark", "operator_normalized": "Aramark", "start_date": "2016-01-01", "end_date": null, "end_status": "unknown", "exit_mode": null, "start_year": 2016, "render_end_year": 2016, "render_end_basis": "evidence stops here; the end is unknown", "start_is_known": true, "end_inferred": false, "needs_review": true, "event_count": 4, "source": "|Fair Disclosure Wire; Linthicum | 2016-11-15; |Star Tribune; Minneapolis, Minn. | 2016-11-03; |Star Tribune (1987-); Minneapolis | 2016-11-03; |Star Tribune; Minneapolis, Minn. | 2016-11-02; |TCA Regional News; Chicago | 2016-11-02; |TCA Regional News; Chicago | 2016-11-03"}}]}